CELESTIS-02             
1 25160U 98007D   23023.37568508  .00000246  00000+0  16756-3 0  9999
2 25160 107.9909 349.6337 0060551  93.8977  59.9651 14.21690807294330
CELESTIS-03             
1 26034U 99070C   23023.08145238  .00057502  00000+0  19914-2 0  9995
2 26034  98.2965  57.2287 0009522  97.2266 263.0055 15.29605406254513
O3B FM5                 
1 39188U 13031A   23023.35684365 -.00000019  00000+0  00000+0 0  9996
2 39188   0.0656   1.2412 0002895 306.4190  52.3078  5.00115360175059
O3B FM4                 
1 39189U 13031B   23021.41383621 -.00000016  00000+0  00000+0 0  9990
2 39189   0.0380 357.8854 0002837 307.8256  54.2582  5.00115850174973
O3B FM2                 
1 39190U 13031C   23019.90627564 -.00000013  00000+0  00000+0 0  9997
2 39190   0.0335 354.4515 0002807 307.7565  57.7617  5.00115111174855
O3B PFM                 
1 39191U 13031D   23023.13069193 -.00000019  00000+0  00000+0 0  9992
2 39191   0.0566   2.0460 0002734 299.6154  58.3063  5.00115851175033
O3B FM3                 
1 40079U 14038A   23021.18652529 -.00000016  00000+0  00000+0 0  9998
2 40079   0.0458 358.6173 0004006 266.2256  95.1073  5.00116641155944
O3B FM7                 
1 40080U 14038B   23019.93336256 -.00000013  00000+0  00000+0 0  9993
2 40080   0.0436 353.5823 0003248 340.1289  26.2692  5.00115555155915
O3B FM6                 
1 40081U 14038C   23022.95813629 -.00000019  00000+0  00000+0 0  9990
2 40081   0.0449 359.5138 0002809 302.5864  57.8671  5.00115273156069
O3B FM8                 
1 40082U 14038D   23019.81372189 -.00000013  00000+0  00000+0 0  9997
2 40082   0.0418   0.2081 0002649 297.2909  62.4711  5.00115680155872
O3B FM10                
1 40348U 14083A   23021.03925495 -.00000015  00000+0  00000+0 0  9995
2 40348   0.0524   5.3463 0002716 294.8726  59.7501  5.00115135147872
O3B FM11                
1 40349U 14083B   23020.65287326 -.00000014  00000+0  00000+0 0  9996
2 40349   0.0540   0.5553 0003154 310.9871  48.4269  5.00115391147854
O3B FM12                
1 40350U 14083C   23020.88000036 -.00000015  00000+0  00000+0 0  9995
2 40350   0.0530   0.8144 0002937 300.0365  59.1163  5.00115246147862
O3B FM9                 
1 40351U 14083D   23019.90722815 -.00000013  00000+0  00000+0 0  9991
2 40351   0.0547 359.5613 0002754 301.2093  59.1993  5.00116065147810
DIAMOND RED             
1 42783U 17036U   23023.08126545  .00025096  00000+0  80021-3 0  9997
2 42783  97.1727  61.5846 0007503 265.9856  94.0529 15.32481838310517
DIAMOND GREEN           
1 42785U 17036W   23022.61758537  .00025666  00000+0  81306-3 0  9999
2 42785  97.1727  61.2174 0007378 269.2272  90.8125 15.32687478310434
DIAMOND BLUE            
1 42786U 17036X   23022.35808306  .00027025  00000+0  85824-3 0  9991
2 42786  97.1726  60.9531 0007420 271.2982  88.7410 15.32597052310392
LEO VANTAGE 1           
1 43113U 18004C   23023.78475241  .00006567  00000+0  52377-3 0  9993
2 43113  99.2413 132.4709 0396422 248.8927 106.9466 14.55015802256268
O3B FM15                
1 43231U 18024A   23020.77272290 -.00000015  00000+0  00000+0 0  9996
2 43231   0.0519   9.1120 0003065 290.4027  60.4510  5.00116214 88991
O3B FM16                
1 43232U 18024B   23022.22539016 -.00000018  00000+0  00000+0 0  9994
2 43232   0.0528  13.5891 0003075 287.8705  58.5053  5.00116012 89054
O3B FM14                
1 43233U 18024C   23023.26462748 -.00000019  00000+0  00000+0 0  9998
2 43233   0.0525  15.1150 0003045 290.9133  53.9378  5.00115423 89105
O3B FM13                
1 43234U 18024D   23023.51806502 -.00000020  00000+0  00000+0 0  9999
2 43234   0.0671 359.1821 0003852 300.5993  60.1745  5.00115121 89127
O3B FM20                
1 44112U 19020A   23023.09142022 -.00000019  00000+0  00000+0 0  9993
2 44112   0.0517   5.3341 0003419 298.8244  55.8034  5.00115491 69564
O3B FM19                
1 44113U 19020B   23020.91949793 -.00000015  00000+0  00000+0 0  9998
2 44113   0.0720  10.8849 0002889 318.1595  30.9347  5.00115035 69442
O3B FM17                
1 44114U 19020C   23020.20032965 -.00000013  00000+0  00000+0 0  9993
2 44114   0.0364  22.2530 0003180 275.9242  61.7874  5.00115693 69295
O3B FM18                
1 44115U 19020D   23019.54713709 -.00000012  00000+0  00000+0 0  9990
2 44115   0.0520   5.2276 0002952 292.3596  62.3801  5.00115870 69372
SALSAT                  
1 46495U 20068K   23020.37026432  .00006526  00000+0  45307-3 0  9998
2 46495  97.7549 327.1702 0014040 261.2160  98.7476 15.05834602126813
ISS (ZARYA)             
1 25544U 98067A   23024.02795280  .00023530  00000+0  41818-3 0  9991
2 25544  51.6450 322.5915 0004781 271.8541 191.8157 15.50050555379437
AEROCUBE 12A            
1 43556U 18046C   23022.73477881  .00081313  00000+0  12737-2 0  9993
2 43556  51.6306 186.5568 0004743 136.3991 223.7375 15.52999164253207
AEROCUBE 12B            
1 43557U 18046D   23022.99906190  .00057073  00000+0  10952-2 0  9995
2 43557  51.6328 194.9688 0005804 120.5560 239.6001 15.47406644253060
LEMUR-2-VU              
1 43558U 18046E   23023.72977996  .00625979  16721-3  18426-2 0  9991
2 43558  51.6231 140.4292 0007140 343.4818  16.5954 15.92039012253901
LEMUR-2-TOMHENDERSON    
1 43561U 18046H   23023.37583551  .00469239  00000+0  21697-2 0  9994
2 43561  51.6373 150.8882 0007307  54.8745 305.2941 15.81643084253293
ICS-EF (ISS DEB)        
1 45265U 98067RJ  23023.73183805  .00141822  00000+0  57634-3 0  9992
2 45265  51.6285 267.3588 0001332 237.5129 122.5746 15.85277416166251
ISS DEB                 
1 47853U 98067RZ  23023.23724143  .00025976  00000+0  32798-3 0  9993
2 47853  51.6402 311.6355 0002763 101.6765 258.4538 15.59377807106133
MMSATS-1                
1 47976U 98067SJ  23023.89031056  .00130052  00000+0  71830-3 0  9997
2 47976  51.6372 286.3641 0003813 138.0703 315.4427 15.78717755104808
CSS (TIANHE)            
1 48274U 21035A   23023.87536067  .00018961  00000+0  22497-3 0  9999
2 48274  41.4759 315.6831 0003444  20.2649  45.7449 15.60741770 99269
ISS (NAUKA)             
1 49044U 21066A   23019.38502698  .00044714  00000+0  79094-3 0  9993
2 49044  51.6441 345.5952 0005080 248.4872 211.5591 15.49849381378706
FREGAT DEB              
1 49271U 11037PF  23023.30558180  .00037569  00000+0  13827+0 0  9994
2 49271  51.6010 348.7176 0914138 136.0935 231.6346 11.98889193 73470
KITSUNE                 
1 52148U 98067TK  23023.86764322  .00175284  00000+0  99987-3 0  9999
2 52148  51.6338 301.2087 0002726  93.8144  14.8127 15.77854405 47702
PROGRESS-MS 20          
1 52795U 22059A   23019.38502698  .00044714  00000+0  79094-3 0  9993
2 52795  51.6441 345.5952 0005080 248.4872 211.5591 15.49849381378703
CSS (WENTIAN)           
1 53239U 22085A   23019.28162384  .00019489  00000+0  23258-3 0  9991
2 53239  41.4763 343.6316 0004937 349.8525 153.2469 15.60568900 98540
1998-067TQ              
1 53305U 98067TQ  23023.16976193  .00451731  00000+0  17632-2 0  9999
2 53305  51.6336 311.7794 0004643 155.1247 204.9982 15.85295219 28984
YUZGU 8                 
1 53306U 98067TR  23023.80313701  .02320385  69391-2  18713-2 0  9995
2 53306  51.6161 303.9091 0007434 183.4304 176.6663 16.15255014 29146
1998-067TS              
1 53307U 98067TS  23023.78443291  .01658867  19700-2  19305-2 0  9996
2 53307  51.6230 304.5367 0007587 180.2666 179.8345 16.08540278 29167
YUZGU 9 (RS3S)          
1 53308U 98067TT  23023.82298675  .01356687  11012-2  19372-2 0  9993
2 53308  51.6250 304.8178 0007612 176.8947 183.2113 16.05057672 29198
YUZGU 7 (RS1S)          
1 53309U 98067TU  23023.80832738  .02057540  40931-2  18919-2 0  9991
2 53309  51.6204 303.9366 0007514 184.4794 175.6155 16.12645471 29158
YUZGU 11 (RS5S)         
1 53310U 98067TV  23023.81125282  .01516254  15045-2  19463-2 0  9997
2 53310  51.6257 304.7386 0007115 180.0139 180.0874 16.06885604 29178
YUZGU 12 (RS6S)         
1 53311U 98067TW  23023.83454301  .09026480  12187-4  11369-2 0  9995
2 53311  51.6136 302.5724 0005825 215.8213 144.2421 16.35149641 29225
TSIOLKOVSKY-RYAZAN 1 (*)
1 53312U 98067TX  23023.77228308  .01751437  23186-2  19589-2 0  9995
2 53312  51.6239 304.4640 0007464 181.9624 178.1362 16.09245971 29132
TSIOLKOVSKY-RYAZAN 2 (*)
1 53313U 98067TY  23023.76188217  .01760989  23850-2  19061-2 0  9994
2 53313  51.6240 304.3990 0007715 181.3437 178.7557 16.09762393 29186
YUZGU 10 (RS4S)         
1 53321U 98067TZ  23023.79367648  .01612060  17927-2  19712-2 0  9990
2 53321  51.6258 304.6190 0007728 180.1646 179.9366 16.07717397 29185
YUZGU UA                
1 53322U 98067UA  23023.79616951  .02218526  54281-2  19659-2 0  9999
2 53322  51.6248 303.8640 0007539 185.3987 174.6948 16.13517421 29148
HSU-SAT1                
1 53462U 98067UB  23023.36255604  .00197717  00000+0  13322-2 0  9995
2 53462  51.6344 314.5825 0004730  78.6309 281.5221 15.73977362 25592
FUTABA                  
1 53463U 98067UC  23022.81186321  .00389641  00000+0  17220-2 0  9994
2 53463  51.6302 314.6169 0004943 109.8667 250.2869 15.82832261 25543
TUMNANOSAT              
1 53464U 98067UD  23023.78368045  .01120588  65413-3  20268-2 0  9990
2 53464  51.6260 306.0540 0006766 160.8692 199.2573 16.00995143 25741
D3                      
1 53767U 98067UE  23023.81306778  .00122988  00000+0  11427-2 0  9994
2 53767  51.6361 316.1328 0004599  91.1268 269.0255 15.66517150 21739
BEAVERCUBE              
1 53768U 98067UF  23023.25109120  .00121924  00000+0  11589-2 0  9993
2 53768  51.6388 319.1251 0003329  99.3355 260.8017 15.65959886 21655
CLICK-A                 
1 53769U 98067UG  23022.54390143  .00342002  00000+0  20299-2 0  9992
2 53769  51.6459 319.7101 0003360 122.0836 238.0491 15.76472099 21581
CAPSAT 1                
1 53770U 98067UH  23023.16298846  .01455093  12715-2  22567-2 0  9995
2 53770  51.6266 310.9369 0008054 164.1841 195.9423 16.03729588 21750
